0 FENGYUN 1C DEB
1 38169U 99025ERS 13290.03035547  .00002763  00000-0  11840-2 0   731
2 38169 098.9595 008.0980 0064089 150.2702 210.4898 14.24579925191374
0 FENGYUN 1C DEB
1 38169U 99025ERS 13291.99690238  .00002835  00000-0  12097-2 0   747
2 38169 098.9745 010.1171 0069254 145.4815 215.1740 14.24592995191658
0 FENGYUN 1C DEB
1 38169U 99025ERS 13292.41829765  .00002876  00000-0  12343-2 0   754
2 38169 098.9533 010.5221 0060333 144.7275 215.8171 14.24597599191711
0 FENGYUN 1C DEB
1 38169U 99025ERS 13292.98017291  .00002925  00000-0  12534-2 0   767
2 38169 098.9602 011.1079 0061776 142.1910 218.3707 14.24602048191793
0 FENGYUN 1C DEB
1 38169U 99025ERS 13295.01695752  .00003160  00000-0  13507-2 0   772
2 38169 098.9648 013.1775 0063380 138.6247 222.0171 14.24621572192087
